LEMUR-2-PETERG          
1 42841U 17042S   26068.48235713  .00023240  00000+0  81076-3 0  9993
2 42841  97.3980 253.6596 0003700 341.6938  18.4169 15.29611459473171
STARLINK-35919          
1 66888U 25283L   26068.16910495  .00041823  00000+0  14169-2 0  9993
2 66888  53.1608  26.6427 0001246  77.0606 283.0534 15.30185332 15762
